{
  "type": "FeatureCollection",
  "features": [
    {
      "type": "Feature",
      "properties": {
        "norad_id": 38755,
        "name": "SPOT 6",
        "group": "resource",
        "lat": 74.15830686281714,
        "lon": -85.30962088335743,
        "alt_km": 690.0036869260211,
        "timestamp": "2025-12-25T19:00:39.005086+00:00",
        "meta_object_name": "SPOT 6",
        "meta_object_id": "2012-047A",
        "meta_epoch": "2025-12-25T07:00:44.964576",
        "meta_mean_motion": 14.58543031,
        "meta_eccentricity": 0.00012497,
        "meta_inclination": 98.1553,
        "meta_ra_of_asc_node": 63.8444,
        "meta_arg_of_pericenter": 78.3133,
        "meta_mean_anomaly": 281.8207,
        "meta_ephemeris_type": 0,
        "meta_classification_type": "U",
        "meta_norad_cat_id": 38755,
        "meta_element_set_no": 999,
        "meta_rev_at_epoch": 70770,
        "meta_bstar": 9.0866103e-05,
        "meta_mean_motion_dot": 3.77e-06,
        "meta_mean_motion_ddot": 0,
        "tle_line1": "1 38755U 12047A   25359.29218709  .00000377  00000+0  90866-4 0  9993",
        "tle_line2": "2 38755  98.1553  63.8444 0001249  78.3133 281.8207 14.58543031707704"
      },
      "geometry": {
        "type": "Point",
        "coordinates": [
          -85.30962088335743,
          74.15830686281714
        ]
      }
    },
    {
      "type": "Feature",
      "properties": {
        "norad_id": 39019,
        "name": "PLEIADES 1B",
        "group": "resource",
        "lat": 1.9073881856412989,
        "lon": 71.96256460728218,
        "alt_km": 700.4516906582066,
        "timestamp": "2025-12-25T19:00:39.005096+00:00",
        "meta_object_name": "PLEIADES 1B",
        "meta_object_id": "2012-068A",
        "meta_epoch": "2025-12-25T05:49:50.094624",
        "meta_mean_motion": 14.58563598,
        "meta_eccentricity": 0.00011508,
        "meta_inclination": 98.1778,
        "meta_ra_of_asc_node": 71.6966,
        "meta_arg_of_pericenter": 87.1097,
        "meta_mean_anomaly": 273.0234,
        "meta_ephemeris_type": 0,
        "meta_classification_type": "U",
        "meta_norad_cat_id": 39019,
        "meta_element_set_no": 999,
        "meta_rev_at_epoch": 69549,
        "meta_bstar": 7.3466428e-05,
        "meta_mean_motion_dot": 2.96e-06,
        "meta_mean_motion_ddot": 0,
        "tle_line1": "1 39019U 12068A   25359.24294091  .00000296  00000+0  73466-4 0  9990",
        "tle_line2": "2 39019  98.1778  71.6966 0001150  87.1097 273.0234 14.58563598695496"
      },
      "geometry": {
        "type": "Point",
        "coordinates": [
          71.96256460728218,
          1.9073881856412989
        ]
      }
    },
    {
      "type": "Feature",
      "properties": {
        "norad_id": 39030,
        "name": "GOKTURK 2",
        "group": "resource",
        "lat": -75.44838086089143,
        "lon": -127.8365472243925,
        "alt_km": 652.5163763555856,
        "timestamp": "2025-12-25T19:00:39.005111+00:00",
        "meta_object_name": "GOKTURK 2",
        "meta_object_id": "2012-073A",
        "meta_epoch": "2025-12-25T06:20:24.298368",
        "meta_mean_motion": 14.75307727,
        "meta_eccentricity": 0.00014422,
        "meta_inclination": 97.6884,
        "meta_ra_of_asc_node": 200.3014,
        "meta_arg_of_pericenter": 107.1554,
        "meta_mean_anomaly": 252.9814,
        "meta_ephemeris_type": 0,
        "meta_classification_type": "U",
        "meta_norad_cat_id": 39030,
        "meta_element_set_no": 999,
        "meta_rev_at_epoch": 69886,
        "meta_bstar": 0.0001159069,
        "meta_mean_motion_dot": 7.38e-06,
        "meta_mean_motion_ddot": 0,
        "tle_line1": "1 39030U 12073A   25359.26417012  .00000738  00000+0  11591-3 0  9992",
        "tle_line2": "2 39030  97.6884 200.3014 0001442 107.1554 252.9814 14.75307727698864"
      },
      "geometry": {
        "type": "Point",
        "coordinates": [
          -127.8365472243925,
          -75.44838086089143
        ]
      }
    },
    {
      "type": "Feature",
      "properties": {
        "norad_id": 39084,
        "name": "LANDSAT 8",
        "group": "resource",
        "lat": 73.52634250311485,
        "lon": -83.12138590285225,
        "alt_km": 694.7283074329262,
        "timestamp": "2025-12-25T19:00:39.005124+00:00",
        "meta_object_name": "LANDSAT 8",
        "meta_object_id": "2013-008A",
        "meta_epoch": "2025-12-25T05:20:57.942240",
        "meta_mean_motion": 14.57114786,
        "meta_eccentricity": 0.0001052,
        "meta_inclination": 98.2056,
        "meta_ra_of_asc_node": 67.1112,
        "meta_arg_of_pericenter": 93.2856,
        "meta_mean_anomaly": 266.8463,
        "meta_ephemeris_type": 0,
        "meta_classification_type": "U",
        "meta_norad_cat_id": 39084,
        "meta_element_set_no": 999,
        "meta_rev_at_epoch": 67256,
        "meta_bstar": 0.00010359924,
        "meta_mean_motion_dot": 4.22e-06,
        "meta_mean_motion_ddot": 0,
        "tle_line1": "1 39084U 13008A   25359.22289285  .00000422  00000+0  10360-3 0  9998",
        "tle_line2": "2 39084  98.2056  67.1112 0001052  93.2856 266.8463 14.57114786672560"
      },
      "geometry": {
        "type": "Point",
        "coordinates": [
          -83.12138590285225,
          73.52634250311485
        ]
      }
    },
    {
      "type": "Feature",
      "properties": {
        "norad_id": 39086,
        "name": "SARAL",
        "group": "resource",
        "lat": 27.095588947047602,
        "lon": 179.13744881649532,
        "alt_km": 780.2238702563354,
        "timestamp": "2025-12-25T19:00:39.005134+00:00",
        "meta_object_name": "SARAL",
        "meta_object_id": "2013-009A",
        "meta_epoch": "2025-12-25T07:09:03.343968",
        "meta_mean_motion": 14.32761263,
        "meta_eccentricity": 0.00029585,
        "meta_inclination": 98.5503,
        "meta_ra_of_asc_node": 183.0645,
        "meta_arg_of_pericenter": 85.0166,
        "meta_mean_anomaly": 275.1356,
        "meta_ephemeris_type": 0,
        "meta_classification_type": "U",
        "meta_norad_cat_id": 39086,
        "meta_element_set_no": 999,
        "meta_rev_at_epoch": 67070,
        "meta_bstar": 6.163749e-05,
        "meta_mean_motion_dot": 1.24e-06,
        "meta_mean_motion_ddot": 0,
        "tle_line1": "1 39086U 13009A   25359.29795537  .00000124  00000+0  61637-4 0  9993",
        "tle_line2": "2 39086  98.5503 183.0645 0002958  85.0166 275.1356 14.32761263670709"
      },
      "geometry": {
        "type": "Point",
        "coordinates": [
          179.13744881649532,
          27.095588947047602
        ]
      }
    },
    {
      "type": "Feature",
      "properties": {
        "norad_id": 39150,
        "name": "GAOFEN-1",
        "group": "resource",
        "lat": 56.74746004875306,
        "lon": 57.94440419681155,
        "alt_km": 625.8541158458693,
        "timestamp": "2025-12-25T19:00:39.005144+00:00",
        "meta_object_name": "GAOFEN-1",
        "meta_object_id": "2013-018A",
        "meta_epoch": "2025-12-25T07:21:57.500064",
        "meta_mean_motion": 14.76502506,
        "meta_eccentricity": 0.00185603,
        "meta_inclination": 97.9309,
        "meta_ra_of_asc_node": 69.7431,
        "meta_arg_of_pericenter": 105.0201,
        "meta_mean_anomaly": 255.3065,
        "meta_ephemeris_type": 0,
        "meta_classification_type": "U",
        "meta_norad_cat_id": 39150,
        "meta_element_set_no": 999,
        "meta_rev_at_epoch": 68258,
        "meta_bstar": 0.00018724519,
        "meta_mean_motion_dot": 1.257e-05,
        "meta_mean_motion_ddot": 0,
        "tle_line1": "1 39150U 13018A   25359.30691551  .00001257  00000+0  18725-3 0  9995",
        "tle_line2": "2 39150  97.9309  69.7431 0018560 105.0201 255.3065 14.76502506682587"
      },
      "geometry": {
        "type": "Point",
        "coordinates": [
          57.94440419681155,
          56.74746004875306
        ]
      }
    },
    {
      "type": "Feature",
      "properties": {
        "norad_id": 39160,
        "name": "VNREDSAT 1",
        "group": "resource",
        "lat": -62.253102358715005,
        "lon": 69.98399869381147,
        "alt_km": 685.1334684432177,
        "timestamp": "2025-12-25T19:00:39.005155+00:00",
        "meta_object_name": "VNREDSAT 1",
        "meta_object_id": "2013-021B",
        "meta_epoch": "2025-12-25T07:49:28.477920",
        "meta_mean_motion": 14.64940946,
        "meta_eccentricity": 0.00011966,
        "meta_inclination": 97.9352,
        "meta_ra_of_asc_node": 54.1589,
        "meta_arg_of_pericenter": 82.7708,
        "meta_mean_anomaly": 277.3632,
        "meta_ephemeris_type": 0,
        "meta_classification_type": "U",
        "meta_norad_cat_id": 39160,
        "meta_element_set_no": 999,
        "meta_rev_at_epoch": 67483,
        "meta_bstar": 0.00014686102,
        "meta_mean_motion_dot": 7.4e-06,
        "meta_mean_motion_ddot": 0,
        "tle_line1": "1 39160U 13021B   25359.32602405  .00000740  00000+0  14686-3 0  9990",
        "tle_line2": "2 39160  97.9352  54.1589 0001196  82.7708 277.3632 14.64940946674832"
      },
      "geometry": {
        "type": "Point",
        "coordinates": [
          69.98399869381147,
          -62.253102358715005
        ]
      }
    }
  ]
}